LIZZIESAT-2 (LS-2)      
1 62383U 24247G   26068.49140277  .00009388  00000+0  34517-3 0  9997
2 62383  44.9909 117.0823 0004092 327.5136  32.5495 15.28222796 67716
STARLINK-34223          
1 64336U 25124V   26068.81796389  .00025547  00000+0  93483-3 0  9991
2 64336  42.9923 117.2018 0000917 311.0752  49.0020 15.27573927 41849
